[{"OBJECT_NAME":"STARLINK-3274","OBJECT_ID":"2021-125AG","EPOCH":"2026-03-09T19:40:10.913664","MEAN_MOTION":15.08836755,"ECCENTRICITY":0.0001207,"INCLINATION":53.2159,"RA_OF_ASC_NODE":258.5414,"ARG_OF_PERICENTER":87.4837,"MEAN_ANOMALY":272.6293,"EPHEMERIS_TYPE":0,"CLASSIFICATION_TYPE":"U","NORAD_CAT_ID":50186,"ELEMENT_SET_NO":999,"REV_AT_EPOCH":23647,"BSTAR":-1.5153508e-5,"MEAN_MOTION_DOT":-5.29e-6,"MEAN_MOTION_DDOT":0},{"OBJECT_NAME":"CZ-6A DEB","OBJECT_ID":"2022-151YC","EPOCH":"2026-03-09T04:14:53.282976","MEAN_MOTION":14.99280007,"ECCENTRICITY":0.00518471,"INCLINATION":98.6024,"RA_OF_ASC_NODE":155.4435,"ARG_OF_PERICENTER":132.3409,"MEAN_ANOMALY":228.2221,"EPHEMERIS_TYPE":0,"CLASSIFICATION_TYPE":"U","NORAD_CAT_ID":55530,"ELEMENT_SET_NO":999,"REV_AT_EPOCH":17201,"BSTAR":0.0041206483,"MEAN_MOTION_DOT":0.00051995,"MEAN_MOTION_DDOT":0}]
